NORAD_CAT_ID,OBJECT_NAME,OBJECT_TYPE,EPOCH,MEAN_MOTION,ECCENTRICITY,INCLINATION,RA_OF_ASC_NODE,ARG_OF_PERICENTER,MEAN_ANOMALY,BSTAR,MEAN_MOTION_DOT,MEAN_MOTION_DDOT,TLE_LINE0,TLE_LINE1,TLE_LINE2,SEMIMAJOR_AXIS,PERIOD,APOGEE,PERIGEE,DECAYED
55746.0,STARLINK-5579,PAYLOAD,2023-06-07 08:48:57,14.9833181,0.0003567,70.0006,261.7222,269.1753,90.8998,-6.1748e-05,-8.3e-06,0.0,0 STARLINK-5579,1 55746U 23028F   23158.36732942 -.00000830  00000-0 -61748-4 0  9990,2 55746  70.0006 261.7222 0003567 269.1753  90.8998 14.98331810 15308,6950.187,96.107,574.531,569.573,0.0
55746.0,STARLINK-5579,PAYLOAD,2023-06-07 16:49:37,14.98334539,0.0003555,70.0006,260.8806,269.1382,90.9369,-2.4507e-05,-3.86e-06,0.0,0 STARLINK-5579,1 55746U 23028F   23158.70112604 -.00000386  00000-0 -24507-4 0  9993,2 55746  70.0006 260.8806 0003555 269.1382  90.9369 14.98334539 15350,6950.179,96.107,574.515,569.573,0.0
55746.0,STARLINK-5579,PAYLOAD,2023-06-08 12:03:14,14.98328867,0.000351,70.0005,258.8597,268.9011,91.1746,4.6701e-05,4.64e-06,0.0,0 STARLINK-5579,1 55746U 23028F   23159.50224668  .00000464  00000-0  46701-4 0  9991,2 55746  70.0005 258.8597 0003510 268.9011  91.1746 14.98328867 15472,6950.196,96.107,574.501,569.622,0.0
55746.0,STARLINK-5579,PAYLOAD,2023-06-08 13:39:22,14.98330526,0.0003511,70.0008,258.6927,268.8522,91.2235,3.8819e-05,3.7e-06,0.0,0 STARLINK-5579,1 55746U 23028F   23159.56900595  .00000370  00000-0  38819-4 0  9994,2 55746  70.0008 258.6927 0003511 268.8522  91.2235 14.98330526 15487,6950.191,96.107,574.496,569.616,0.0
55746.0,STARLINK-5579,PAYLOAD,2023-06-08 16:51:38,14.98331989,0.0003501,70.0009,258.3559,268.8111,91.2647,5.2962e-05,5.39e-06,0.0,0 STARLINK-5579,1 55746U 23028F   23159.70252448  .00000539  00000-0  52962-4 0  9999,2 55746  70.0009 258.3559 0003501 268.8111  91.2647 14.98331989 15503,6950.187,96.107,574.485,569.618,0.0
55746.0,STARLINK-5579,PAYLOAD,2023-06-09 10:29:07,14.98329936,0.0003421,70.0012,256.5047,267.0104,93.0664,-7.3608e-06,-1.81e-06,0.0,0 STARLINK-5579,1 55746U 23028F   23160.43688716 -.00000181  00000-0 -73608-5 0  9998,2 55746  70.0012 256.5047 0003421 267.0104  93.0664 14.98329936 15613,6950.193,96.107,574.436,569.68,0.0
55746.0,STARLINK-5579,PAYLOAD,2023-06-09 15:17:31,14.98330425,0.000341,70.0011,255.9997,266.7628,93.3141,-1.3693e-06,-1.09e-06,0.0,0 STARLINK-5579,1 55746U 23028F   23160.63716657 -.00000109  00000-0 -13693-5 0  9994,2 55746  70.0011 255.9997 0003410 266.7628  93.3141 14.98330425 15645,6950.192,96.107,574.427,569.687,0.0
55746.0,STARLINK-5579,PAYLOAD,2023-06-09 16:53:39,14.98330703,0.0003424,70.0011,255.8313,267.4465,92.6302,1.1781e-06,-7.9e-07,0.0,0 STARLINK-5579,1 55746U 23028F   23160.70392630 -.00000079  00000-0  11781-5 0  9994,2 55746  70.0011 255.8313 0003424 267.4465  92.6302 14.98330703 15659,6950.191,96.107,574.435,569.676,0.0
55746.0,STARLINK-5579,PAYLOAD,2023-06-10 12:07:16,14.98328823,0.0003356,70.0012,253.8117,266.4866,93.5909,-2.9012e-05,-4.39e-06,0.0,0 STARLINK-5579,1 55746U 23028F   23161.50504819 -.00000439  00000-0 -29012-4 0  9993,2 55746  70.0012 253.8117 0003356 266.4866  93.5909 14.98328823 15774,6950.197,96.107,574.394,569.729,0.0
55746.0,STARLINK-5579,PAYLOAD,2023-06-10 15:19:31,14.98334016,0.0003275,70.0013,253.4753,263.6423,96.4363,5.2219e-05,5.3e-06,0.0,0 STARLINK-5579,1 55746U 23028F   23161.63856220  .00000530  00000-0  52219-4 0  9998,2 55746  70.0013 253.4753 0003275 263.6423  96.4363 14.98334016 15794,6950.18,96.107,574.322,569.769,0.0
55746.0,STARLINK-5579,PAYLOAD,2023-06-10 23:20:10,14.98374576,0.0003496,70.0014,252.6343,263.4906,96.5855,-0.00059384,-7.18e-05,0.0,0 STARLINK-5579,1 55746U 23028F   23161.97234919 -.00007180  00000-0 -59384-3 0  9999,2 55746  70.0014 252.6343 0003496 263.4906  96.5855 14.98374576 15848,6950.055,96.104,574.35,569.49,0.0
55746.0,STARLINK-5579,PAYLOAD,2023-06-11 05:44:44,14.98333809,0.0002933,70.0022,251.9624,260.9015,99.1812,4.8359e-05,4.84e-06,0.0,0 STARLINK-5579,1 55746U 23028F   23162.23940155  .00000484  00000-0  48359-4 0  9994,2 55746  70.0022 251.9624 0002933 260.9015  99.1812 14.98333809 15889,6950.181,96.107,574.085,570.008,0.0
55746.0,STARLINK-5579,PAYLOAD,2023-06-11 12:09:16,14.98328913,0.0003339,70.001,251.2871,267.9088,92.1689,-1.0195e-05,-2.15e-06,0.0,0 STARLINK-5579,1 55746U 23028F   23162.50644539 -.00000215  00000-0 -10195-4 0  9992,2 55746  70.0010 251.2871 0003339 267.9088  92.1689 14.98328913 15921,6950.196,96.107,574.382,569.741,0.0
55746.0,STARLINK-5579,PAYLOAD,2023-06-12 05:46:45,14.98329857,0.0003461,70.0005,249.4349,268.7855,91.2908,2.2644e-05,1.77e-06,0.0,0 STARLINK-5579,1 55746U 23028F   23163.24080395  .00000177  00000-0  22644-4 0  9995,2 55746  70.0005 249.4349 0003461 268.7855  91.2908 14.98329857 16036,6950.193,96.107,574.464,569.653,0.0
55746.0,STARLINK-5579,PAYLOAD,2023-06-12 10:35:09,14.98329984,0.0003492,70.0004,248.9295,267.682,92.3939,9.6311e-06,2.2e-07,0.0,0 STARLINK-5579,1 55746U 23028F   23163.44108398  .00000022  00000-0  96311-5 0  9993,2 55746  70.0004 248.9295 0003492 267.6820  92.3939 14.98329984 16063,6950.193,96.107,574.485,569.631,0.0
55746.0,STARLINK-5579,PAYLOAD,2023-06-12 23:24:13,14.98337885,0.0003615,70.0003,247.5827,273.8639,86.2106,-8.2793e-05,-1.081e-05,0.0,0 STARLINK-5579,1 55746U 23028F   23163.97516038 -.00001081  00000-0 -82793-4 0  9991,2 55746  70.0003 247.5827 0003615 273.8639  86.2106 14.98337885 16148,6950.169,96.106,574.546,569.521,0.0
55746.0,STARLINK-5579,PAYLOAD,2023-06-13 05:48:46,14.9832647,0.0003392,70.0009,246.9105,271.044,89.0331,4.8092e-05,4.81e-06,0.0,0 STARLINK-5579,1 55746U 23028F   23164.24220404  .00000481  00000-0  48092-4 0  9996,2 55746  70.0009 246.9105 0003392 271.0440  89.0331 14.98326470 16181,6950.204,96.107,574.426,569.711,0.0
55746.0,STARLINK-5579,PAYLOAD,2023-06-13 10:37:10,14.98323149,0.0003616,70.0004,246.4047,268.899,91.1755,5.3267e-05,5.42e-06,0.0,0 STARLINK-5579,1 55746U 23028F   23164.44248591  .00000542  00000-0  53267-4 0  9993,2 55746  70.0004 246.4047 0003616 268.8990  91.1755 14.98323149 16217,6950.214,96.107,574.592,569.566,0.0
55746.0,STARLINK-5579,PAYLOAD,2023-06-14 05:50:47,14.98332633,0.0003356,70.0005,244.3856,271.5957,88.4818,-9.9462e-06,-2.12e-06,0.0,0 STARLINK-5579,1 55746U 23028F   23165.24360269 -.00000212  00000-0 -99462-5 0  9993,2 55746  70.0005 244.3856 0003356 271.5957  88.4818 14.98332633 16338,6950.185,96.107,574.382,569.717,0.0
55746.0,STARLINK-5579,PAYLOAD,2023-06-15 10:41:12,14.98327559,0.0003511,70.0001,241.3557,270.5221,89.5535,1.0252e-05,2.9e-07,0.0,0 STARLINK-5579,1 55746U 23028F   23166.44528450  .00000029  00000-0  10252-4 0  9997,2 55746  70.0001 241.3557 0003511 270.5221  89.5535 14.98327559 16514,6950.2,96.107,574.506,569.625,0.0
55746.0,STARLINK-5579,PAYLOAD,2023-06-15 13:53:28,14.9832836,0.0003462,70.0002,241.0192,266.1823,93.894,1.6904e-05,1.09e-06,0.0,0 STARLINK-5579,1 55746U 23028F   23166.57880359  .00000109  00000-0  16904-4 0  9999,2 55746  70.0002 241.0192 0003462 266.1823  93.8940 14.98328360 16532,6950.198,96.107,574.469,569.657,0.0
55746.0,STARLINK-5579,PAYLOAD,2023-06-15 15:29:36,14.98328535,0.0003463,70.0002,240.8509,266.3215,93.7548,1.8255e-05,1.25e-06,0.0,0 STARLINK-5579,1 55746U 23028F   23166.64556349  .00000125  00000-0  18255-4 0  9995,2 55746  70.0002 240.8509 0003463 266.3215  93.7548 14.98328535 16547,6950.197,96.107,574.469,569.656,0.0
55746.0,STARLINK-5579,PAYLOAD,2023-06-16 10:43:12,14.98335915,0.0003541,70.0,238.8309,267.5719,92.5034,4.6595e-05,4.63e-06,0.0,0 STARLINK-5579,1 55746U 23028F   23167.44667674  .00000463  00000-0  46595-4 0  9991,2 55746  70.0000 238.8309 0003541 267.5719  92.5034 14.98335915 16669,6950.175,96.107,574.501,569.579,0.0
55746.0,STARLINK-5579,PAYLOAD,2023-06-16 12:19:20,14.98337667,0.0003503,70.0,238.6626,267.5524,92.5234,6.8235e-05,7.21e-06,0.0,0 STARLINK-5579,1 55746U 23028F   23167.51343474  .00000721  00000-0  68235-4 0  9990,2 55746  70.0000 238.6626 0003503 267.5524  92.5234 14.98337667 16670,6950.169,96.107,574.469,569.6,0.0
55746.0,STARLINK-5579,PAYLOAD,2023-06-16 13:55:28,14.98338779,0.0003498,70.0,238.4943,267.5329,92.5429,8.0199e-05,8.64e-06,0.0,0 STARLINK-5579,1 55746U 23028F   23167.58019336  .00000864  00000-0  80199-4 0  9995,2 55746  70.0000 238.4943 0003498 267.5329  92.5429 14.98338779 16688,6950.166,96.106,574.462,569.6,0.0
55746.0,STARLINK-5579,PAYLOAD,2023-06-17 10:45:14,14.98325071,0.0003056,70.0009,236.3077,265.6739,94.4071,-1.5491e-05,-2.78e-06,0.0,0 STARLINK-5579,1 55746U 23028F   23168.44808480 -.00000278  00000-0 -15491-4 0  9991,2 55746  70.0009 236.3077 0003056 265.6739  94.4071 14.98325071 16816,6950.208,96.107,574.197,569.949,0.0
55746.0,STARLINK-5579,PAYLOAD,2023-06-17 13:57:31,14.98319307,0.0003341,70.0008,235.9717,265.7267,94.351,-7.5263e-05,-9.91e-06,0.0,0 STARLINK-5579,1 55746U 23028F   23168.58161059 -.00000991  00000-0 -75263-4 0  9995,2 55746  70.0008 235.9717 0003341 265.7267  94.3510 14.98319307 16839,6950.226,96.108,574.413,569.769,0.0
55746.0,STARLINK-5579,PAYLOAD,2023-06-18 10:47:15,14.98334455,0.0003765,69.9995,233.7811,267.343,92.7298,-4.1754e-05,-5.91e-06,0.0,0 STARLINK-5579,1 55746U 23028F   23169.44948000 -.00000591  00000-0 -41754-4 0  9994,2 55746  69.9995 233.7811 0003765 267.3430  92.7298 14.98334455 16962,6950.179,96.107,574.661,569.427,0.0
55746.0,STARLINK-5579,PAYLOAD,2023-06-18 22:00:00,14.98319508,0.0003935,70.001,232.6028,266.9808,92.4287,0.00043662,5.119e-05,0.0,0 STARLINK-5579,1 55746U 23028F   23169.91667824  .00005119  00000-0  43662-3 0  9996,2 55746  70.0010 232.6028 0003935 266.9808  92.4287 14.98319508 17029,6950.225,96.108,574.825,569.355,0.0
55746.0,STARLINK-5579,PAYLOAD,2023-06-19 10:49:15,14.98328548,0.0003839,69.9994,231.2565,266.5983,93.4737,0.00010447,1.154e-05,0.0,0 STARLINK-5579,1 55746U 23028F   23170.45087922  .00001154  00000-0  10447-3 0  9992,2 55746  69.9994 231.2565 0003839 266.5983  93.4737 14.98328548 17116,6950.197,96.107,574.731,569.394,0.0
